{
  "norad_id": 66454,
  "name": "VIASAT-3 F2",
  "history": [
    {
      "epoch": "2026-03-28T21:15:20.869344Z",
      "apogee_km": 35793.42862431814,
      "perigee_km": 35778.64333542102,
      "latitude_deg": 0.0033842232979304086,
      "longitude_deg": -79.00313783306501,
      "height_km": 35778.25171615437,
      "semi_major_axis_km": 42164.17297986958,
      "eccentricity": 0.00017533,
      "inclination_deg": 0.0586,
      "raan_deg": 271.4359,
      "arg_perigee_deg": 163.7915,
      "mean_anomaly_deg": 350.8856,
      "mean_motion_rev_day": 1.00273779
    },
    {
      "epoch": "2026-03-29T04:06:01.179936Z",
      "apogee_km": 35793.590656641456,
      "perigee_km": 35778.49588010538,
      "latitude_deg": -0.05724916023239607,
      "longitude_deg": -78.97747254212238,
      "height_km": 35786.01241058521,
      "semi_major_axis_km": 42164.18026837342,
      "eccentricity": 0.000179,
      "inclination_deg": 0.0578,
      "raan_deg": 271.356,
      "arg_perigee_deg": 164.3124,
      "mean_anomaly_deg": 93.396,
      "mean_motion_rev_day": 1.00273753
    }
  ]
}